[{"OBJECT_NAME":"STARLINK-2435","OBJECT_ID":"2021-018BJ","EPOCH":"2026-03-10T00:00:02.999808","MEAN_MOTION":15.29340937,"ECCENTRICITY":0.00013872,"INCLINATION":53.155,"RA_OF_ASC_NODE":253.714,"ARG_OF_PERICENTER":82.5646,"MEAN_ANOMALY":227.059,"EPHEMERIS_TYPE":0,"CLASSIFICATION_TYPE":"U","NORAD_CAT_ID":47843,"ELEMENT_SET_NO":999,"REV_AT_EPOCH":569,"BSTAR":0.0017512838,"MEAN_MOTION_DOT":0.000505,"MEAN_MOTION_DDOT":0},{"OBJECT_NAME":"OBJECT B","OBJECT_ID":"2024-205B","EPOCH":"2026-03-09T23:46:05.115936","MEAN_MOTION":15.28158697,"ECCENTRICITY":0.00105957,"INCLINATION":97.4192,"RA_OF_ASC_NODE":146.9311,"ARG_OF_PERICENTER":34.0947,"MEAN_ANOMALY":326.0972,"EPHEMERIS_TYPE":0,"CLASSIFICATION_TYPE":"U","NORAD_CAT_ID":61895,"ELEMENT_SET_NO":999,"REV_AT_EPOCH":7352,"BSTAR":0.00054154807,"MEAN_MOTION_DOT":0.00014827,"MEAN_MOTION_DDOT":0}]
